CCSDS_OMM_VERS = 2.0
CREATION_DATE  = 
ORIGINATOR     = 

OBJECT_NAME    = STARLINK-35467
OBJECT_ID      = 2025-253AA
CENTER_NAME    = EARTH
REF_FRAME      = TEME
TIME_SYSTEM    = UTC
MEAN_ELEMENT_THEORY = SGP/SGP4

EPOCH          = 2025-12-05T03:59:44.849184
MEAN_MOTION    = 15.40694330
ECCENTRICITY   = .00023831
INCLINATION    = 43.0020
RA_OF_ASC_NODE = 29.3350
ARG_OF_PERICENTER = 256.3336
MEAN_ANOMALY   = 103.7255

EPHEMERIS_TYPE = 0
CLASSIFICATION_TYPE = U
NORAD_CAT_ID   = 66343
ELEMENT_SET_NO = 999
REV_AT_EPOCH   = 575
BSTAR          = .19501814E-2
MEAN_MOTION_DOT = .82028E-3
MEAN_MOTION_DDOT = 0

CCSDS_OMM_VERS = 2.0
CREATION_DATE  = 
ORIGINATOR     = 

OBJECT_NAME    = STARLINK-35511
OBJECT_ID      = 2025-253AB
CENTER_NAME    = EARTH
REF_FRAME      = TEME
TIME_SYSTEM    = UTC
MEAN_ELEMENT_THEORY = SGP/SGP4

EPOCH          = 2025-12-04T10:13:55.829568
MEAN_MOTION    = 15.50597049
ECCENTRICITY   = .0001448
INCLINATION    = 43.0011
RA_OF_ASC_NODE = 33.2328
ARG_OF_PERICENTER = 274.0444
MEAN_ANOMALY   = 86.0251

EPHEMERIS_TYPE = 0
CLASSIFICATION_TYPE = U
NORAD_CAT_ID   = 66344
ELEMENT_SET_NO = 999
REV_AT_EPOCH   = 564
BSTAR          = .14218E-3
MEAN_MOTION_DOT = .8013E-4
MEAN_MOTION_DDOT = 0

CCSDS_OMM_VERS = 2.0
CREATION_DATE  = 
ORIGINATOR     = 

OBJECT_NAME    = STARLINK-35440
OBJECT_ID      = 2025-253AC
CENTER_NAME    = EARTH
REF_FRAME      = TEME
TIME_SYSTEM    = UTC
MEAN_ELEMENT_THEORY = SGP/SGP4

EPOCH          = 2025-12-05T06:00:02.000160
MEAN_MOTION    = 15.40625252
ECCENTRICITY   = .00010041
INCLINATION    = 43.0008
RA_OF_ASC_NODE = 28.5498
ARG_OF_PERICENTER = 254.7636
MEAN_ANOMALY   = 333.6402

EPHEMERIS_TYPE = 0
CLASSIFICATION_TYPE = U
NORAD_CAT_ID   = 66345
ELEMENT_SET_NO = 999
REV_AT_EPOCH   = 572
BSTAR          = .11799878E-2
MEAN_MOTION_DOT = .49183E-3
MEAN_MOTION_DDOT = 0

CCSDS_OMM_VERS = 2.0
CREATION_DATE  = 
ORIGINATOR     = 

OBJECT_NAME    = STARLINK-35482
OBJECT_ID      = 2025-253AD
CENTER_NAME    = EARTH
REF_FRAME      = TEME
TIME_SYSTEM    = UTC
MEAN_ELEMENT_THEORY = SGP/SGP4

EPOCH          = 2025-12-05T06:00:02.000160
MEAN_MOTION    = 15.45221306
ECCENTRICITY   = .00010512
INCLINATION    = 43.0008
RA_OF_ASC_NODE = 28.4501
ARG_OF_PERICENTER = 261.0081
MEAN_ANOMALY   = 8.9579

EPHEMERIS_TYPE = 0
CLASSIFICATION_TYPE = U
NORAD_CAT_ID   = 66346
ELEMENT_SET_NO = 999
REV_AT_EPOCH   = 582
BSTAR          = -.47860482E-1
MEAN_MOTION_DOT = -.2067847E-1
MEAN_MOTION_DDOT = 0

CCSDS_OMM_VERS = 2.0
CREATION_DATE  = 
ORIGINATOR     = 

OBJECT_NAME    = STARLINK-35438
OBJECT_ID      = 2025-253AE
CENTER_NAME    = EARTH
REF_FRAME      = TEME
TIME_SYSTEM    = UTC
MEAN_ELEMENT_THEORY = SGP/SGP4

EPOCH          = 2025-12-05T04:46:32.982240
MEAN_MOTION    = 15.50631575
ECCENTRICITY   = .0001736
INCLINATION    = 43.0007
RA_OF_ASC_NODE = 28.7095
ARG_OF_PERICENTER = 268.9819
MEAN_ANOMALY   = 91.0843

EPHEMERIS_TYPE = 0
CLASSIFICATION_TYPE = U
NORAD_CAT_ID   = 66347
ELEMENT_SET_NO = 999
REV_AT_EPOCH   = 576
BSTAR          = .2267896E-2
MEAN_MOTION_DOT = .135282E-2
MEAN_MOTION_DDOT = 0

CCSDS_OMM_VERS = 2.0
CREATION_DATE  = 
ORIGINATOR     = 

OBJECT_NAME    = STARLINK-35849
OBJECT_ID      = 2025-254A
CENTER_NAME    = EARTH
REF_FRAME      = TEME
TIME_SYSTEM    = UTC
MEAN_ELEMENT_THEORY = SGP/SGP4

EPOCH          = 2025-12-05T06:00:02.000160
MEAN_MOTION    = 15.55250692
ECCENTRICITY   = .00014736
INCLINATION    = 53.1592
RA_OF_ASC_NODE = 312.4443
ARG_OF_PERICENTER = 78.5893
MEAN_ANOMALY   = 76.8197

EPHEMERIS_TYPE = 0
CLASSIFICATION_TYPE = U
NORAD_CAT_ID   = 66348
ELEMENT_SET_NO = 999
REV_AT_EPOCH   = 571
BSTAR          = -.34286765E-1
MEAN_MOTION_DOT = -.2101434E-1
MEAN_MOTION_DDOT = 0

CCSDS_OMM_VERS = 2.0
CREATION_DATE  = 
ORIGINATOR     = 

OBJECT_NAME    = STARLINK-35848
OBJECT_ID      = 2025-254B
CENTER_NAME    = EARTH
REF_FRAME      = TEME
TIME_SYSTEM    = UTC
MEAN_ELEMENT_THEORY = SGP/SGP4

EPOCH          = 2025-12-05T06:00:02.000160
MEAN_MOTION    = 15.55249664
ECCENTRICITY   = .00015087
INCLINATION    = 53.1591
RA_OF_ASC_NODE = 312.4400
ARG_OF_PERICENTER = 78.9605
MEAN_ANOMALY   = 78.3662

EPHEMERIS_TYPE = 0
CLASSIFICATION_TYPE = U
NORAD_CAT_ID   = 66349
ELEMENT_SET_NO = 999
REV_AT_EPOCH   = 571
BSTAR          = -.34270734E-1
MEAN_MOTION_DOT = -.2100512E-1
MEAN_MOTION_DDOT = 0

CCSDS_OMM_VERS = 2.0
CREATION_DATE  = 
ORIGINATOR     = 

OBJECT_NAME    = STARLINK-35829
OBJECT_ID      = 2025-254C
CENTER_NAME    = EARTH
REF_FRAME      = TEME
TIME_SYSTEM    = UTC
MEAN_ELEMENT_THEORY = SGP/SGP4

EPOCH          = 2025-12-05T06:00:02.000160
MEAN_MOTION    = 15.55248919
ECCENTRICITY   = .00016458
INCLINATION    = 53.1593
RA_OF_ASC_NODE = 312.4358
ARG_OF_PERICENTER = 84.7683
MEAN_ANOMALY   = 74.4711

EPHEMERIS_TYPE = 0
CLASSIFICATION_TYPE = U
NORAD_CAT_ID   = 66350
ELEMENT_SET_NO = 999
REV_AT_EPOCH   = 571
BSTAR          = -.34187628E-1
MEAN_MOTION_DOT = -.209602E-1
MEAN_MOTION_DDOT = 0

CCSDS_OMM_VERS = 2.0
CREATION_DATE  = 
ORIGINATOR     = 

OBJECT_NAME    = STARLINK-35828
OBJECT_ID      = 2025-254D
CENTER_NAME    = EARTH
REF_FRAME      = TEME
TIME_SYSTEM    = UTC
MEAN_ELEMENT_THEORY = SGP/SGP4

EPOCH          = 2025-12-05T06:00:02.000160
MEAN_MOTION    = 15.55249190
ECCENTRICITY   = .00013646
INCLINATION    = 53.1593
RA_OF_ASC_NODE = 312.4325
ARG_OF_PERICENTER = 81.8991
MEAN_ANOMALY   = 79.2573

EPHEMERIS_TYPE = 0
CLASSIFICATION_TYPE = U
NORAD_CAT_ID   = 66351
ELEMENT_SET_NO = 999
REV_AT_EPOCH   = 569
BSTAR          = -.34172288E-1
MEAN_MOTION_DOT = -.2095013E-1
MEAN_MOTION_DDOT = 0

CCSDS_OMM_VERS = 2.0
CREATION_DATE  = 
ORIGINATOR     = 

OBJECT_NAME    = STARLINK-35850
OBJECT_ID      = 2025-254E
CENTER_NAME    = EARTH
REF_FRAME      = TEME
TIME_SYSTEM    = UTC
MEAN_ELEMENT_THEORY = SGP/SGP4

EPOCH          = 2025-12-05T06:00:02.000160
MEAN_MOTION    = 15.55250596
ECCENTRICITY   = .00015294
INCLINATION    = 53.1594
RA_OF_ASC_NODE = 312.4282
ARG_OF_PERICENTER = 89.1620
MEAN_ANOMALY   = 73.9109

EPHEMERIS_TYPE = 0
CLASSIFICATION_TYPE = U
NORAD_CAT_ID   = 66352
ELEMENT_SET_NO = 999
REV_AT_EPOCH   = 567
BSTAR          = -.34236801E-1
MEAN_MOTION_DOT = -.209874E-1
MEAN_MOTION_DDOT = 0

CCSDS_OMM_VERS = 2.0
CREATION_DATE  = 
ORIGINATOR     = 

OBJECT_NAME    = STARLINK-35869
OBJECT_ID      = 2025-254F
CENTER_NAME    = EARTH
REF_FRAME      = TEME
TIME_SYSTEM    = UTC
MEAN_ELEMENT_THEORY = SGP/SGP4

EPOCH          = 2025-12-05T06:00:02.000160
MEAN_MOTION    = 15.55248154
ECCENTRICITY   = .00013653
INCLINATION    = 53.1594
RA_OF_ASC_NODE = 312.4238
ARG_OF_PERICENTER = 82.5449
MEAN_ANOMALY   = 82.4432

EPHEMERIS_TYPE = 0
CLASSIFICATION_TYPE = U
NORAD_CAT_ID   = 66353
ELEMENT_SET_NO = 999
REV_AT_EPOCH   = 571
BSTAR          = -.34103991E-1
MEAN_MOTION_DOT = -.2091214E-1
MEAN_MOTION_DDOT = 0

CCSDS_OMM_VERS = 2.0
CREATION_DATE  = 
ORIGINATOR     = 

OBJECT_NAME    = STARLINK-35895
OBJECT_ID      = 2025-254G
CENTER_NAME    = EARTH
REF_FRAME      = TEME
TIME_SYSTEM    = UTC
MEAN_ELEMENT_THEORY = SGP/SGP4

EPOCH          = 2025-12-05T06:00:02.000160
MEAN_MOTION    = 15.49323344
ECCENTRICITY   = .00013587
INCLINATION    = 53.1600
RA_OF_ASC_NODE = 312.8886
ARG_OF_PERICENTER = 67.0472
MEAN_ANOMALY   = 227.0847

EPHEMERIS_TYPE = 0
CLASSIFICATION_TYPE = U
NORAD_CAT_ID   = 66354
ELEMENT_SET_NO = 999
REV_AT_EPOCH   = 571
BSTAR          = -.22335608E-3
MEAN_MOTION_DOT = -.12856E-3
MEAN_MOTION_DDOT = 0

