STARLINK-35467          
1 66343U 25253AA  25339.16649131  .00082028  00000+0  19502-2 0  9990
2 66343  43.0020  29.3350 0002383 256.3336 103.7255 15.40694330  5754
STARLINK-35511          
1 66344U 25253AB  25338.42634062  .00008013  00000+0  14218-3 0  9998
2 66344  43.0011  33.2328 0001448 274.0444  86.0251 15.50597049  5649
STARLINK-35440          
1 66345U 25253AC  25339.25002315  .00049183  00000+0  11800-2 0  9997
2 66345  43.0008  28.5498 0001004 254.7636 333.6402 15.40625252  5722
STARLINK-35482          
1 66346U 25253AD  25339.25002315 -.02067847  00000+0 -47860-1 0  9993
2 66346  43.0008  28.4501 0001051 261.0081   8.9579 15.45221306  5829
STARLINK-35438          
1 66347U 25253AE  25339.19899285  .00135282  00000+0  22679-2 0  9994
2 66347  43.0007  28.7095 0001736 268.9819  91.0843 15.50631575  5764
STARLINK-35849          
1 66348U 25254A   25339.25002315 -.02101434  00000+0 -34287-1 0  9996
2 66348  53.1592 312.4443 0001473  78.5893  76.8197 15.55250692  5711
STARLINK-35848          
1 66349U 25254B   25339.25002315 -.02100512  00000+0 -34271-1 0  9996
2 66349  53.1591 312.4400 0001508  78.9605  78.3662 15.55249664  5719
STARLINK-35829          
1 66350U 25254C   25339.25002315 -.02096020  00000+0 -34188-1 0  9993
2 66350  53.1593 312.4358 0001645  84.7683  74.4711 15.55248919  5712
STARLINK-35828          
1 66351U 25254D   25339.25002315 -.02095013  00000+0 -34172-1 0  9998
2 66351  53.1593 312.4325 0001364  81.8991  79.2573 15.55249190  5693
STARLINK-35850          
1 66352U 25254E   25339.25002315 -.02098740  00000+0 -34237-1 0  9991
2 66352  53.1594 312.4282 0001529  89.1620  73.9109 15.55250596  5676
STARLINK-35869          
1 66353U 25254F   25339.25002315 -.02091214  00000+0 -34104-1 0  9994
2 66353  53.1594 312.4238 0001365  82.5449  82.4432 15.55248154  5718
STARLINK-35895          
1 66354U 25254G   25339.25002315 -.00012856  00000+0 -22336-3 0  9994
2 66354  53.1600 312.8886 0001358  67.0472 227.0847 15.49323344  5711
